{
  "type": "FeatureCollection",
  "features": [
    {
      "type": "Feature",
      "properties": {
        "norad_id": 66594,
        "name": "STARLINK-36032",
        "group": "last-30-days",
        "lat": -40.50738376641271,
        "lon": 112.04817647322199,
        "alt_km": 416.6202091570576,
        "timestamp": "2025-12-15T04:01:19.179965+00:00",
        "meta_object_name": "STARLINK-36032",
        "meta_object_id": "2025-270G",
        "meta_epoch": "2025-12-14T00:00:04.000320",
        "meta_mean_motion": 15.5050269,
        "meta_eccentricity": 0.00016318,
        "meta_inclination": 42.9998,
        "meta_ra_of_asc_node": 185.341,
        "meta_arg_of_pericenter": 276.5265,
        "meta_mean_anomaly": 325.8,
        "meta_ephemeris_type": 0,
        "meta_classification_type": "U",
        "meta_norad_cat_id": 66594,
        "meta_element_set_no": 999,
        "meta_rev_at_epoch": 434,
        "meta_bstar": 0.0020735286,
        "meta_mean_motion_dot": 0.00122896,
        "meta_mean_motion_ddot": 0,
        "tle_line1": "1 66594U 25270G   25348.00004630  .00122896  00000+0  20735-2 0  9997",
        "tle_line2": "2 66594  42.9998 185.3410 0001631 276.5265 325.8000 15.50502690  4341"
      },
      "geometry": {
        "type": "Point",
        "coordinates": [
          112.04817647322199,
          -40.50738376641271
        ]
      }
    },
    {
      "type": "Feature",
      "properties": {
        "norad_id": 66595,
        "name": "STARLINK-35711",
        "group": "last-30-days",
        "lat": -39.98919248495351,
        "lon": 114.3263598878975,
        "alt_km": 416.9249531120013,
        "timestamp": "2025-12-15T04:01:19.179977+00:00",
        "meta_object_name": "STARLINK-35711",
        "meta_object_id": "2025-270H",
        "meta_epoch": "2025-12-14T00:29:54.926304",
        "meta_mean_motion": 15.5056412,
        "meta_eccentricity": 0.00016069,
        "meta_inclination": 42.9995,
        "meta_ra_of_asc_node": 185.2128,
        "meta_arg_of_pericenter": 263.7365,
        "meta_mean_anomaly": 96.3312,
        "meta_ephemeris_type": 0,
        "meta_classification_type": "U",
        "meta_norad_cat_id": 66595,
        "meta_element_set_no": 999,
        "meta_rev_at_epoch": 465,
        "meta_bstar": 0.00093576363,
        "meta_mean_motion_dot": 0.00054912,
        "meta_mean_motion_ddot": 0,
        "tle_line1": "1 66595U 25270H   25348.02077461  .00054912  00000+0  93576-3 0  9999",
        "tle_line2": "2 66595  42.9995 185.2128 0001606 263.7365  96.3312 15.50564120  4651"
      },
      "geometry": {
        "type": "Point",
        "coordinates": [
          114.3263598878975,
          -39.98919248495351
        ]
      }
    },
    {
      "type": "Feature",
      "properties": {
        "norad_id": 66596,
        "name": "STARLINK-35811",
        "group": "last-30-days",
        "lat": -12.985517451126501,
        "lon": 13.04897267599544,
        "alt_km": 444.89915387262045,
        "timestamp": "2025-12-15T04:01:19.179988+00:00",
        "meta_object_name": "STARLINK-35811",
        "meta_object_id": "2025-270J",
        "meta_epoch": "2025-12-14T06:00:02.999808",
        "meta_mean_motion": 15.40691532,
        "meta_eccentricity": 0.00021454,
        "meta_inclination": 42.9998,
        "meta_ra_of_asc_node": 184.01,
        "meta_arg_of_pericenter": 266.799,
        "meta_mean_anomaly": 237.1388,
        "meta_ephemeris_type": 0,
        "meta_classification_type": "U",
        "meta_norad_cat_id": 66596,
        "meta_element_set_no": 999,
        "meta_rev_at_epoch": 475,
        "meta_bstar": 0.00021733345,
        "meta_mean_motion_dot": 8.783e-05,
        "meta_mean_motion_ddot": 0,
        "tle_line1": "1 66596U 25270J   25348.25003472  .00008783  00000+0  21733-3 0  9997",
        "tle_line2": "2 66596  42.9998 184.0100 0002145 266.7990 237.1388 15.40691532  4754"
      },
      "geometry": {
        "type": "Point",
        "coordinates": [
          13.04897267599544,
          -12.985517451126501
        ]
      }
    },
    {
      "type": "Feature",
      "properties": {
        "norad_id": 66597,
        "name": "STARLINK-35820",
        "group": "last-30-days",
        "lat": -39.50493524650175,
        "lon": 60.82858819434111,
        "alt_km": 447.59520135183266,
        "timestamp": "2025-12-15T04:01:19.179998+00:00",
        "meta_object_name": "STARLINK-35820",
        "meta_object_id": "2025-270K",
        "meta_epoch": "2025-12-14T06:00:02.999808",
        "meta_mean_motion": 15.44227723,
        "meta_eccentricity": 0.00012601,
        "meta_inclination": 42.9997,
        "meta_ra_of_asc_node": 183.9032,
        "meta_arg_of_pericenter": 273.5732,
        "meta_mean_anomaly": 275.274,
        "meta_ephemeris_type": 0,
        "meta_classification_type": "U",
        "meta_norad_cat_id": 66597,
        "meta_element_set_no": 999,
        "meta_rev_at_epoch": 475,
        "meta_bstar": -0.050420793,
        "meta_mean_motion_dot": -0.02100991,
        "meta_mean_motion_ddot": 0,
        "tle_line1": "1 66597U 25270K   25348.25003472 -.02100991  00000+0 -50421-1 0  9990",
        "tle_line2": "2 66597  42.9997 183.9032 0001260 273.5732 275.2740 15.44227723  4759"
      },
      "geometry": {
        "type": "Point",
        "coordinates": [
          60.82858819434111,
          -39.50493524650175
        ]
      }
    },
    {
      "type": "Feature",
      "properties": {
        "norad_id": 66598,
        "name": "STARLINK-35981",
        "group": "last-30-days",
        "lat": -38.02462620170408,
        "lon": 121.43368873761392,
        "alt_km": 416.6240626648523,
        "timestamp": "2025-12-15T04:01:19.180011+00:00",
        "meta_object_name": "STARLINK-35981",
        "meta_object_id": "2025-270L",
        "meta_epoch": "2025-12-14T06:39:27.876672",
        "meta_mean_motion": 15.50601029,
        "meta_eccentricity": 0.00017401,
        "meta_inclination": 42.9992,
        "meta_ra_of_asc_node": 183.6976,
        "meta_arg_of_pericenter": 260.576,
        "meta_mean_anomaly": 99.4903,
        "meta_ephemeris_type": 0,
        "meta_classification_type": "U",
        "meta_norad_cat_id": 66598,
        "meta_element_set_no": 999,
        "meta_rev_at_epoch": 442,
        "meta_bstar": 0.0015430836,
        "meta_mean_motion_dot": 0.00091319,
        "meta_mean_motion_ddot": 0,
        "tle_line1": "1 66598U 25270L   25348.27740598  .00091319  00000+0  15431-2 0  9992",
        "tle_line2": "2 66598  42.9992 183.6976 0001740 260.5760  99.4903 15.50601029  4422"
      },
      "geometry": {
        "type": "Point",
        "coordinates": [
          121.43368873761392,
          -38.02462620170408
        ]
      }
    },
    {
      "type": "Feature",
      "properties": {
        "norad_id": 66599,
        "name": "STARLINK-35930",
        "group": "last-30-days",
        "lat": -37.29968810305746,
        "lon": 123.64662762256641,
        "alt_km": 417.270727740236,
        "timestamp": "2025-12-15T04:01:19.180022+00:00",
        "meta_object_name": "STARLINK-35930",
        "meta_object_id": "2025-270M",
        "meta_epoch": "2025-12-14T06:38:58.381440",
        "meta_mean_motion": 15.50601172,
        "meta_eccentricity": 6.541e-05,
        "meta_inclination": 42.9992,
        "meta_ra_of_asc_node": 183.6953,
        "meta_arg_of_pericenter": 259.7194,
        "meta_mean_anomaly": 100.3592,
        "meta_ephemeris_type": 0,
        "meta_classification_type": "U",
        "meta_norad_cat_id": 66599,
        "meta_element_set_no": 999,
        "meta_rev_at_epoch": 458,
        "meta_bstar": 0.0014620785,
        "meta_mean_motion_dot": 0.00086452,
        "meta_mean_motion_ddot": 0,
        "tle_line1": "1 66599U 25270M   25348.27706460  .00086452  00000+0  14621-2 0  9995",
        "tle_line2": "2 66599  42.9992 183.6953 0000654 259.7194 100.3592 15.50601172  4584"
      },
      "geometry": {
        "type": "Point",
        "coordinates": [
          123.64662762256641,
          -37.29968810305746
        ]
      }
    },
    {
      "type": "Feature",
      "properties": {
        "norad_id": 66600,
        "name": "STARLINK-35980",
        "group": "last-30-days",
        "lat": -36.43904699559252,
        "lon": 126.07788375456586,
        "alt_km": 415.45446131695735,
        "timestamp": "2025-12-15T04:01:19.180034+00:00",
        "meta_object_name": "STARLINK-35980",
        "meta_object_id": "2025-270N",
        "meta_epoch": "2025-12-14T00:00:04.000320",
        "meta_mean_motion": 15.50494294,
        "meta_eccentricity": 0.00027052,
        "meta_inclination": 43,
        "meta_ra_of_asc_node": 185.3122,
        "meta_arg_of_pericenter": 274.3886,
        "meta_mean_anomaly": 339.4365,
        "meta_ephemeris_type": 0,
        "meta_classification_type": "U",
        "meta_norad_cat_id": 66600,
        "meta_element_set_no": 999,
        "meta_rev_at_epoch": 450,
        "meta_bstar": 0.0029848595,
        "meta_mean_motion_dot": 0.00178281,
        "meta_mean_motion_ddot": 0,
        "tle_line1": "1 66600U 25270N   25348.00004630  .00178281  00000+0  29849-2 0  9999",
        "tle_line2": "2 66600  43.0000 185.3122 0002705 274.3886 339.4365 15.50494294  4506"
      },
      "geometry": {
        "type": "Point",
        "coordinates": [
          126.07788375456586,
          -36.43904699559252
        ]
      }
    }
  ]
}